KUIPER-00230            
1 68579U 26072G   26099.43425812  .00021452  00000+0  56340-3 0  9991
2 68579  51.8754 149.3662 0001763  91.2354 268.8835 15.38558398   802
